,Company Name,Director Name,Company Address,Factory Address,Phone Number,Fax Number,Email Address,Website,Products
0, 3MS Tex (BD) [ Membership: 1161 ]   Member Status : Cancel ," Mr. Md. Enayetul Karim Al-Mamun,  Proprietor","Company Address : Karamtola, Harbaid, Gazipur Sadar, Gazipur. ","Factory Address : Karamtola, Harbaid, Gazipur Sadar, Gazipur. ","Phone : 01715-537847, 01975-537847 ",Fax : ,Email : menayet@yahoo.com ,Website :  ,"Products : Yarn Coaning, Master Carton, Inner Carton, Metal Zipper, Elastic, Gum Tape "
1, A & A Accessories Ltd. [ Membership: 189 ]   Member Status : Cancel ," Mr. Sanwar Ahmed,  Managing Director","Company Address : 138/1, J.N.Saha Road, Lalbag, Dhaka ","Factory Address : 138/1, J.N.Saha Road, Lalbag, Dhaka ",Phone : 8618622 ,Fax : 8629427 ,Email : aaal@dhakacom.com ,Website :  ,Products : Printed Poly Bag 
2, A. A. Accessories Ltd. [ Membership: 1124 ]   Member Status : Cancel ," Mr. Md. Sarwar Alamgir,  Managing Director",Company Address : ,Factory Address : ,Phone : 031-2518092 ,Fax : 031-2518095 ,Email : halda_acc@yahoo.com ,Website :  ,"Products : Printed Poly Bag, BOPP Bag, Hanger, Elastic/Non Elastic Band, Back Board, Neck Board, Collar Bone, Barcode, Hang Tag, Size Tag, Price Tag, Tissue Paper etc. "
3, ABS Carton & Accessories Industries Ltd. [ Membership: 369 ]   Member Status : Active ," Mr. Mohamad Belal,  Managing Director","Company Address : South Pahartali, Fatehabad, Hathazari, Chattogram ","Factory Address : South Pahartali, Fatehabad, Hathazari, Chattogram ",Phone : 031-2552048 ,Fax : ,"Email : mbtrade@dhaka.net, harbiscon@yahoo.com ",Website :  ,"Products : Corrugated Carton, Back Board, Neck Board,  Hang Tag, Paper Band, Sticker, Barcode, Photocard, Elastic & Non Elastic Band. "
4, A. G. Packaging Industries Ltd. [ Membership: 285 ]   Member Status : Active ," Mir Mozzammel Hossain,  Managing Director","Company Address : Barimojlis, Sonargaon Narayangonj. ","Factory Address : Barimojlis, Sonargaon Narayangonj. ","Phone : 9555226 Cell: 01713024294, 0919024294 ",Fax : ,Email : agpack2012@gmail.com ,Website :  ,"Products : Corrugated Carton, Back Board, Neck Board, Tissue Paper. "
5, A. H. Packaging & Accessories Ltd. [ Membership: 624 ]   Member Status : Active ," Alhaz Md. Anowar Hossain,  Director","Company Address : 865/1, Dakkhin Khailkur, National University, Board Bazar, Gazipur ","Factory Address : 865/1, Dakkhin Khailkur, National University, Board Bazar, Gazipur ",Phone : 9810487 ,Fax : 9804550 ,Email : ahpackaging@fancybd.com ,Website :  ,"Products : Corrugated Carton, Back Board, Neck Board, Tissue Paper, Collar Inser, Butterfly. "
6, A. K. Accessories (PVT.) Ltd. [ Membership: 1049 ]   Member Status : Cancel ," Mr. Nurul Amin,  Managing Director",Company Address : ,Factory Address : ,Phone : 9889571 ,Fax : 9884058 ,Email : amin@akaccessoriesbd.com ,Website :  ,"Products : Button, PP Bag, Label, Yarn, Gum Tape. "
7, A. K. Packaging Ltd. [ Membership: 262 ]   Member Status : Cancel ," Mr. ABM Fazlul Karim,  Managing Director","Company Address : C.S. Plot # 95 (Part), Vill: Mogarkhal, Vogra, Bashan, Joydebpur, Gazipur ","Factory Address : C.S. Plot # 95 (Part), Vill: Mogarkhal, Vogra, Bashan, Joydebpur, Gazipur ","Phone : 8825659, 8825691 ",Fax : 8826113 ,Email : ,Website :  ,Products : Corrugated Carton 
8, A. K. Thread Co. (Pvt.) Ltd. [ Membership: 316 ]   Member Status : Active ," Mr. Nurul Amin,  Managing Director","Company Address : 165, Zingira, Savar, Dhaka ","Factory Address : 165, Zingira, Savar, Dhaka ",Phone : 9889571 ,Fax : 9884058 ,Email : aklabel@gnbd.net ,Website :  ,"Products : Woven label, Sewing Thread, Printed label. "
9, A. M. Flexo Poly Print [ Membership: 556 ]   Member Status : Cancel ," Mr. S. M. Rahman (Moin),  Proprietor",Company Address : ,Factory Address : ,Phone : 9012425 ,Fax : ,Email : ,Website :  ,Products : Printed Poly Bag. 
10, A. N. Accessories Industries [ Membership: 1198 ]   Member Status : Active ," Mr. Mohammed Alamgir,  Proprietor","Company Address : Nayahat, Baktapur, Ward # 3, Oxizen Quish Link Road, Panchlish, Chattogram ","Factory Address : Nayahat, Baktapur, Ward # 3, Oxizen Quish Link Road, Panchlish, Chattogram ","Phone : 031-2584187, 2584860, 01713-124713, 01819-386989 ",Fax : ,"Email : anaccessories70@yahoo.com, anaccessories70@gmail.com ",Website :  ,"Products : Elastic,/Non Elastic, Lace, Sewing Thread. "
11, A. R. Printing & Pacakging Inds. Ltd. [ Membership: 1019 ]   Member Status : Active ," Mr. Md. Golam Rasul,  Managing Director","Company Address : Anis Complex, Raj Fulbaria Bus Stand,  Fulbaria, Tetuzora, Savar, Dhaka ","Factory Address : Anis Complex, Raj Fulbaria Bus Stand,  Fulbaria, Tetuzora, Savar, Dhaka ","Phone : 01712564007, 01912564007 ",Fax : ,Email : arpandltd@gmail.com ,Website : www.arpackagingltd.com ,Products : Corrugated Carton. 
12, A. Rashid Sikder Ind. Limited [ Membership: 1223 ]   Member Status : Active ," Mr. Md. Shahidul Haque,  Managing Director","Company Address : 210, 212, Deshipara, Gazipur Sadar, Gazipur ","Factory Address : 210, 212, Deshipara, Gazipur Sadar, Gazipur ","Phone : 8399858, 01613015258, 1624398385 ",Fax : ,Email : s.haque1967@yahoo.com ,Website :  ,"Products : Carton, Poly Bag,Ggum Tape. "
13, A. R. Elastic Industries [ Membership: 460 ]   Member Status : Active ," Mr. Md. Salam Mia,  Managing Partner","Company Address : 281, Pagar, Fakir Market, Tongi, Gazipur. ","Factory Address : 281, Pagar, Fakir Market, Tongi, Gazipur. ","Phone : 8150154,8151912 ",Fax : 9143772 ,Email : ridoy@dhaka.net ,Website :  ,"Products : Woven tape, Elastic, Non elastic Tape, Drawstring/Drawcord, Sewing Thread. "
14, A. S. Packaging [ Membership: 1140 ]   Member Status : Active ," Mr. Md. Didarul Islam,  Proprietor","Company Address : Block # B, Plot # C-11, Shaoloshor, BSCIC I/A Nasirabad, Chattogram. ","Factory Address : Block # B, Plot # C-11, Shaoloshor, BSCIC I/A Nasirabad, Chattogram. ","Phone : 031-2581018, 01819321171 ",Fax : ,Email : aspack31@yahoo.com ,Website :  ,"Products : Corrugated Cartom, Back Board, Neck Board, Collar Bone, Bar Code, Hang Tag, Size Tag, Price Tag, Tissue Paper, Waxing Box. "
15, A-1 International [ Membership: 756 ]   Member Status : Cancel ," Mr. Md. Rashedul Islam,  Proprietor","Company Address : Plot # 111, Eidgha Kacha Rastha,  Double Mooring, Chattogram ","Factory Address : Plot # 111, Eidgha Kacha Rastha,  Double Mooring, Chattogram ",Phone : 031-2513119 ,Fax : 031-2513118 ,Email : ,Website :  ,"Products : Printed Poly Bag, Back Board, Neck Board, Hang Tag, Price Tag, Size Tag, Phot in lay, Tissue Paper, Drawstring. "
16, AAA Accessories Corporation [ Membership: 897 ]   Member Status : Active ," Mr. Nezam Uddin,  Partner ","Company Address : 3452/A, Golden Beach Road, Chorpara, South Patenga, Chattogram ","Factory Address : 3452/A, Golden Beach Road, Chorpara, South Patenga, Chattogram ","Phone : 031-2502349, 2501820, 01715107094 ",Fax : ,"Email : shanimapoly@gmail.com, aaaaccessories3@gmail.com ",Website : www.shanimagroup.com ,"Products : Gum Tape, Scotch Tape, Back Board, Neck Board, Paper Band, Hang Tag, Price Tag, Bar Code, Size Tag, Plastic Hanger, Poly bag, Drawstring, Twill Tape, Draw Cord "
17, ABA Packaging Ltd. [ Membership: 692 ]   Member Status : Active ," Mrs. Shamima Rahman,  Director","Company Address : Nichintapur, Zerabo, Savar, Dhaka. ","Factory Address : Nichintapur, Zerabo, Savar, Dhaka. ","Phone : 7790619, 7790620, 01713125868, 01715-219754 ",Fax : 7701750 ,Email : ,Website :  ,"Products : Corrugated Carton, Back Board, Neck Board, Tissue Paper. "
18, Accessories Mart [ Membership: 800 ]   Member Status : Cancel ," Mr. Md. Abdul Mannan,  Proprietor",Company Address : ,Factory Address : ,"Phone : 031-626607, 2853312, 01814-395334 ",Fax : 031-2853310 ,Email : farhadgoni36@hotmail.com ,Website :  ,"Products : Printed Poly Bag, Hanger, Back Board, Neck Board, Hang Tag, Price Tag, Photo Card/Board, Photo in lay, Tissue Paper. "
19, Accessories Private Ltd. [ Membership: 327 ]   Member Status : Active ," Mr. Ehsan Elahi,  Managing Director","Company Address : 1/1, A.C. Ray Road, Armanitola, Dhaka. ","Factory Address : 1/1, A.C. Ray Road, Armanitola, Dhaka. ","Phone : 57316572, 57314924 Cell : 01711525064 ",Fax : ,Email : sohel.quadir@yahoo.com ,Website :  ,Products : Printed Poly Bag. 
20, Accurate Packaging Ind. Ltd. [ Membership: 479 ]   Member Status : Cancel ," Mr. Md. Yousuf Hossain,  Managing Director","Company Address : 49, Motijheel Commercial Area (7th Floor) Room # 804, Dhaka ","Factory Address : 49, Motijheel Commercial Area (7th Floor) Room # 804, Dhaka ",Phone : 7170852 ,Fax : 7170852 ,Email : rayhan_accuratepackagingbd@hotmail.com ,Website :  ,"Products : Corrugated Carton, BOPP Bag, Gum Tape, Hanger,  Back Board, Neck Board, Tissue Paper, Hang Tag, Phoro Card, Paper Band. "
21, Achieve Accessories Ltd. [ Membership: 805 ]   Member Status : Cancel ," Mr. N. I. Khan,  Managing Director",Company Address : ,Factory Address : ,"Phone : 9345404, 9331068 ",Fax : 8358667 ,Email : achieve_ltd@yahoo.com ,Website :  ,"Products : Master Carton, Inner Carton, Back Board, Neck Board, Photo Card, Hang Tag, Price Tag, Size Tag, Bar Code, Country Tag, Sticker, Tissue Paper, Poly Bag, Hanger, Collar Insert, Butterfly, Label. "
22, Faiza Button & Zipper Ltd. [ Membership: 229 ]   Member Status : Active ," Mr. Md. Jahangir Kabir,  Proprietor","Company Address : Munno Nagar, 219/1, Pagar, Tongi, Gazipur ","Factory Address : Munno Nagar, 219/1, Pagar, Tongi, Gazipur ","Phone : 9000450, 01711561198 ",Fax : 9014215 ,"Email : md@fizbd.com, info@fizbd.com ",Website :  ,"Products : Zipper, Button "
23, Active Industries Ltd. [ Membership: 519 ]   Member Status : Cancel ," Mr. Jahangir Kabir,  Managing Director",Company Address : ,Factory Address : ,Phone : 9010789 ,Fax : ,Email : active@activezipper.net ,Website :  ,Products : 100% Spun Polyester Sewing Thread. 
24, Active Poly Industries Ltd. [ Membership: 867 ]   Member Status : Active ," Mr. Alamgir Kabir,  Managing Director","Company Address : Kumkumary, Amtala, Ashulia, Savar, Dhaka ","Factory Address : Kumkumary, Amtala, Ashulia, Savar, Dhaka ","Phone : 01713-031647, 01713 399434, 01927 328016 ",Fax : ,Email : kabiractivepoly@gmail.com ,Website :  ,Products : Printed Poly Bag 
25, Active Zipper Ltd. [ Membership: 605 ]   Member Status : Active ," Mr. Md. Jahangir Kabir,  Managing Director","Company Address : 219/1, Pagar, Munnu Nagar, Tongi, Gazipur ","Factory Address : 219/1, Pagar, Munnu Nagar, Tongi, Gazipur ",Phone : 9000450 ,Fax : 9010798 ,Email : activegp@activezipper.net ,Website :  ,"Products : Nylon Zipper, Plastic Zipper, Metal Zipper. "
26, Adhesion Products (Pvt.) Ltd. [ Membership: 432 ]   Member Status : Active ," Mr. T. K. Chakraborty,  Managing Director","Company Address : Plot # 30 (S) 31, 32, (S) BSCIC Estate (Ext.) Kalurghat Ind. Area, Chattogram. ","Factory Address : Plot # 30 (S) 31, 32, (S) BSCIC Estate (Ext.) Kalurghat Ind. Area, Chattogram. ","Phone : 031-638283, 623313, 01716146991, 01819324134 ",Fax : 031-2851292 ,Email : adhesiongroup@gmail.com ,Website : www.adhesion-bd.com ,"Products : Water Base Acrylic Resin, Chemical (Deem exporter) "
27, Advance Flexopack Industries [ Membership: 416 ]   Member Status : Active ," Mr. Md. Anwar Hossain,  Proprietor","Company Address : Shiarchar, Fatullah, Narayangonj. ","Factory Address : Shiarchar, Fatullah, Narayangonj. ",Phone : 01711537851 ,Fax : 9009302 ,Email : info@advancegroupbd.com ,Website :  ,"Products : Poly Bag, Bopp Bag, Plaric Hanger. "
28, Advanced Carton Industry [ Membership: 945 ]   Member Status : Cancel ," Mr. Abu Hanif Bhuiyan,  Proprietor",Company Address : ,Factory Address : ,"Phone : 01824569569, 01711149327 ",Fax : ,Email : ,Website :  ,"Products : Corrugated Carton, Back board, Neck Board, Collar Bone, Bar Code, Hang Tag, Size Tag, Tissue Paper, Printed Label. "
29, Affan Interlinings Ltd. [ Membership: 685 ]   Member Status : Active ," Mr. Md. Nazrul Islam,  Managing Director","Company Address : Block # A, Plot # B-12, BSCIC I/A Sagarica Road, Chattogram ","Factory Address : Block # A, Plot # B-12, BSCIC I/A Sagarica Road, Chattogram ","Phone : 031-2773196-97, 01711725817 ",Fax : 031-2773199 ,"Email : affan@colbd.com, affan.islamctg@gmail.com ",Website :  ,Products : Interlining 
30, Agami Accessories Ltd. [ Membership: 1083 ]   Member Status : Active ," Mr. M. Shahadat Hossain Kiron,  Chairman","Company Address : Singair Road, Hemayetpur, Savar, Dhaka. ","Factory Address : Singair Road, Hemayetpur, Savar, Dhaka. ",Phone : 09666774400 ,Fax : ,"Email : dal@dalbd.com, info@dalbd.com ",Website : www.dekkolrgacy.com ,"Products : Label, Poly Bag, PP Band, Carton, Hanger, Poly Hooks, Stopper, Metal Buttons "
31, Agrani Elastic Ind. Ltd. [ Membership: 1044 ]   Member Status : Active ," Mr. Md. Mofiz Ullah,  Managing Director","Company Address : 5208, Gheredhara, Kadamtali, Dhaka-1362 ","Factory Address : 5208, Gheredhara, Kadamtali, Dhaka-1362 ",Phone : 7544870 ,Fax : 01819-147767 ,Email : agranielastic@gmail.com ,Website :  ,"Products : Elastic/Non-Elastic Band, Twill Tape. "
32, Agrani Packaging & Paper Converting Ltd. [ Membership: 167 ]   Member Status : Cancel ," Mr.Md.Delowar Hossain Chowdhury,  Managing Director",Company Address : ,Factory Address : ,"Phone : 8316816, 9336232 ",Fax : 880-2-8312241 ,Email : agranigroup@gmail.com ,Website :  ,"Products : Corrugated Carton, Back Board, Neck Board, Tissue Paper. "
33, Ahmed House Hold Products (PVT) Ltd. [ Membership: 890 ]   Member Status : Active ," Md. Saydul Hasan Sarker,  Managing Director","Company Address : Plot# 1/6, Road# 7, Section# 7, Mirpur industrial Area, Dhaka ","Factory Address : Plot# 1/6, Road# 7, Section# 7, Mirpur industrial Area, Dhaka ","Phone : 9004671, 01711520978  ",Fax : 8015011 ,Email : sarker000@yahoo.com ,Website :  ,Products : All types of Label making & printing 
34, AKB Accessories [ Membership: 654 ]   Member Status : Active ," Mr. Al-Haj Akter Kamal Chowdhury,  Managing Partner","Company Address : S-57/58, BSCIC Industrial Estate, Kalurghat, Chattogram ","Factory Address : S-57/58, BSCIC Industrial Estate, Kalurghat, Chattogram ","Phone : 031-621872, 636471 ",Fax : ,Email : sufalbd@yahoo.com ,Website :  ,"Products : Elastic, Non Elastic. "
35, AKH Packaging & Accessories Ltd. [ Membership: 528 ]   Member Status : Active ," Md. Firoz Uddin Hawlader,  Director","Company Address : Horindhara, Tannery Road, Hemayetpur, Savar, Dhaka. ","Factory Address : Horindhara, Tannery Road, Hemayetpur, Savar, Dhaka. ","Phone : 7744001, 01713043259 ",Fax : 7741831 ,"Email : firoz@akhfashions.com, shihab_akhp@akhfashions.com ",Website :  ,"Products : Corrugated Carton, Back Board, Neck Board, Tissue Paper, Hang Tag, Photo Card/Photo Board, Sewing Thread,Drawstring Printed Poly Bag. "
36, AKH Trims Ltd. [ Membership: 901 ]   Member Status : Active ," Md. Firoz Uddin Hawlader,  Director","Company Address : Harindhara, Tenary Rd., Hemayetpur, Savar, Dhaka ","Factory Address : Harindhara, Tenary Rd., Hemayetpur, Savar, Dhaka ","Phone : 7744001-8, 01713043259 ",Fax : 8155640 ,Email : firoz@akhfashions.com ,Website :  ,"Products : Corrugated Carton, Back Board, Neck Board, Tissue Paper, Sewing Thread, Poly Bag, Hanger. "
37, Alam Industries [ Membership: 954 ]   Member Status : Cancel ," Mr. Noor Alam,  Proprietor",Company Address : ,Factory Address : ,Phone : 01714106909 ,Fax : ,Email : babu@alamindustries.com ,Website :  ,Products :  
38, Alam Packaging [ Membership: 85 ]   Member Status : Cancel ," Mr. Nurul Alam,  Proprietor",Company Address : ,Factory Address : ,Phone : 880-2-9752618 ,Fax : 7646203 ,Email : info@msl-bd.com ,Website :  ,"Products : Corrugated Carton, Back Board, Neck Board, Tissue Paper, Hang Tag, Price Tag etc. "
39, Alam Thread & Accessories Ind. Ltd. [ Membership: 893 ]   Member Status : Active ," Md. Habib Ullah,  Managing Director","Company Address : 1494/A, Middle Rampur, Salam Mansion, Naya Bazar, Amin Contractor Road, Chattogram. ","Factory Address : 1494/A, Middle Rampur, Salam Mansion, Naya Bazar, Amin Contractor Road, Chattogram. ",Phone : 031-711957 ,Fax : ,Email : mhelastic@yahoo.com ,Website :  ,"Products : Sewing Thread, Elastic/Non Elastic Band, Gum, Tape. "
40, Alfa Industries Ltd. [ Membership: 549 ]   Member Status : Cancel ," Md. A. K. M. Fazlul Karim,  Managing Director",Company Address : ,Factory Address : ,Phone : 7176853 ,Fax : ,Email : ,Website :  ,"Products : Elastic Band, Non Elastic Band, Drawstring & Cord. "
41, Alfis Limited [ Membership: 242 ]   Member Status : Active ," Mr. Ahmed Kabir,  Managing Director","Company Address : China Shukhaniya, Vawal Rajabari, Sreepur, Gazipur. ","Factory Address : China Shukhaniya, Vawal Rajabari, Sreepur, Gazipur. ","Phone : 9353021-25, 01711344813 ",Fax : 8316309 ,Email : alfisltd@gmail.com ,Website :  ,"Products : Plain Elastic, Design Elastic, Woven Tape// Crochet tape, Back Board, Neck Board, Tissue Paper, Butterfly, Collar Insert. "
42, Alien Weaving Factory Ltd. [ Membership: 1102 ]   Member Status : Active ," Mr. Muhammad Sifur Rahman,  Managing Director","Company Address : 27, Kathaldia, Nishat nagor, Tongi, Gazipur. ","Factory Address : 27, Kathaldia, Nishat nagor, Tongi, Gazipur. ","Phone : 9816826, Cell: 01921204264, 01911801492 ",Fax : ,Email : alien@alienbd.net ,Website :  ,"Products : Various Twill Tape, Belt, Crochet Elastic. "
43, Alif Printing & Packaging [ Membership: 1095 ]   Member Status : Cancel ," Mr. Abu Zahid,  Proprietor",Company Address : ,Factory Address : ,"Phone : 9612745, 01817-099390 ",Fax : ,Email : abuzahid_city@yahoo.com ,Website :  ,Products : Corrugated Paper Carton 
44, Al-Muslim Accessories Ltd. [ Membership: 708 ]   Member Status : Active ," Mr. S. M. Amzad Hossain,  Managing Director","Company Address : Nishchintapur, Zirabo, Ashulia, Savar, Dhaka ","Factory Address : Nishchintapur, Zirabo, Ashulia, Savar, Dhaka ","Phone : 9336501, 937034, 01711566511 ",Fax : 8316920 ,"Email : amzad@almuslimgroup.net, management_dnd@almuslimgroup.net, mozammel@almuslimgroup.net ",Website :  ,"Products : Elastic, Twill Tape, Embroidery, Drawstring, Draw Cord, Back Board, Neck Board, Hang Tag, Price Tag, Photo Card/Board, Tissue Paper. "
45, Al-Muslim Garments Accessories Ltd. [ Membership: 1196 ]   Member Status : Active ," Mr. Md. Abdullah,  Managing Director","Company Address : 14, Gedda, Karnopara, Ulail, Savar, Dhaka ","Factory Address : 14, Gedda, Karnopara, Ulail, Savar, Dhaka ","Phone : 7743600, 7743599, 7743598,  7742873, 7742874, 7748792, 7746711, 7747439, 7742825 ",Fax : 7742824 ,Email : md@pacificbluejeans.com ,Website :  ,"Products : Label, Sticker, Grawstring, Draw-Cord, Carton box, Back Board, Neck Board, Tissue, Clip, Yarn Coaning. "
46, Al-Noor Printing & Accessories Ltd. [ Membership: 532 ]   Member Status : Active ," Mr. Md. Javed Masud,  Managing Director","Company Address : 389, Shimrail, Siddirgonj, Narayanganj ","Factory Address : 389, Shimrail, Siddirgonj, Narayanganj ",Phone : 7192295 ,Fax : 7193168 ,Email : ,Website :  ,"Products : Corrugated Carton, Back Board, Neck Board, Tissue Paper, Hang Tag, Photo Card, Fashion Board etc. "
47, Ama Zipper Co. Ltd. [ Membership: 802 ]   Member Status : Cancel ," Mr. Md. Narul Islam,  Managing Director","Company Address : House # 15, Road #04, Block #A,  Section#10, Mirpur Fakruuddin Security (2nd Floor), Dhaka ","Factory Address : House # 15, Road #04, Block #A,  Section#10, Mirpur Fakruuddin Security (2nd Floor), Dhaka ","Phone : 9010617, 01918-339106 ",Fax : 8059435 ,Email : amagroup92@yahoo.com ,Website :  ,"Products : Nylon Zipper, Vislon Zipper, Metal Zipper. "
48, Amar Thread & Packaging Ind. Ltd. [ Membership: 958 ]   Member Status : Cancel ,"  Mr. Ali Ahmed Razu,  Managing director",Company Address : ,Factory Address : ,Phone : 9298906 ,Fax : ,Email : atpil.ahmed@yahoo.com ,Website :  ,"Products : Inner Carton, Master Carton, Neck Board, Back Board, Sewing Thread. "
49, Amass Packaging & Accessories Ltd. [ Membership: 1064 ]   Member Status : Cancel ," Mr. Md. Mahabubul Alam,  Director",Company Address : ,Factory Address : ,"Phone : 9360328, 01713015497, 01711839845 ",Fax : ,Email : amasstd@yahoo.com ,Website :  ,"Products : Carton, PP Bag, LDPE Bag, Neck Board, Back Board, Paper Tubes. "
50, Ambia Packaging [ Membership: 817 ]   Member Status : Cancel ," Mr. Abul Quashem,  Proprietor",Company Address : ,Factory Address : ,Phone : 031-713084 ,Fax : 031-710361 ,Email : info@ambiagroup.com ,Website :  ,"Products : Corrugated Carton, Back Board, Neck Board, Tissue Paper. "
51, Amcaba Limited [ Membership: 1084 ]   Member Status : Active ," Mr. Mohammad Sheikh Faisal,  Director","Company Address : Abder, Telehati, Sreepur, Gazipur ","Factory Address : Abder, Telehati, Sreepur, Gazipur ","Phone : 8411854, 8417921-2 ",Fax : 8413779 ,"Email : info@dadagroup-bd.com, com_152@dadagroup-bd.com ",Website :  ,"Products : Chemical (DOP & Orhers, Dye Oxtail Thelat). "
52, Amin Associates [ Membership: 892 ]   Member Status : Cancel ,"  Md. Khaled Amin Rashed,  Proprietor",Company Address : ,Factory Address : ,"Phone : 8951250, 8957052, 8957053 ",Fax : ,"Email : amin_associates02@yahoo.com, sales@aminassociates.com ",Website :  ,"Products : Oriented Elastic, Twill Tag, Belt, Draw Cord, Drawstring, Printed Label. "
53, Amin Brothers Acc.Ltd. [ Membership: 1079 ]   Member Status : Active ," Mr. Md. Ruhul Amin Bhuiyan,  Managing Director","Company Address : Mouchak, Kaliakoir, Gazipur ","Factory Address : Mouchak, Kaliakoir, Gazipur ",Phone : 9567142 ,Fax : 9566910 ,Email : n_amin07@yahoo.com ,Website :  ,"Products : Carton, Poly Bag, Elastic, Drawstring, Tread Conning, PVC Tape, Gum Tape, Label Printing, Fabrics printing. "
54, Amorous Fashions Limited [ Membership: 234 ]   Member Status : Cancel ," Mr. Mossarraf Hossain Chowdhury,  Managing Director","Company Address : 58, East Hazipara DIT Road, Rampura, Dhaka-1219 ","Factory Address : 58, East Hazipara DIT Road, Rampura, Dhaka-1219 ","Phone : 9338172, 9349514 ",Fax : 9330918 ,Email : amorous_polymax@yahoo.com ,Website :  ,"Products : All Kinds of Elastic Band, Drawstring/ Draw Cord. "
55, Anchor Dyeing & Accessories Ltd. [ Membership: 384 ]   Member Status : Active ," Mr. Md. Abul Hossain,  Managing Director","Company Address : 93, Naya Ati, Painadi, Shiddhirganj, Narayanganj ","Factory Address : 93, Naya Ati, Painadi, Shiddhirganj, Narayanganj ","Phone : 9342725, 9352085 ",Fax : 9352335 ,Email : anchorabtex@gmail.com ,Website :  ,"Products : Polyester Sewing Thread, Elastic tape, Non Elastic Tape, Polyester Twill tape, Design Tape.  "
56, Anik Trims Ltd. [ Membership: 1074 ]   Member Status : Active ," Mr. S.M. Malek,  Managing Director","Company Address : Golora Charkhanda, Jagir, Manikgonj ","Factory Address : Golora Charkhanda, Jagir, Manikgonj ","Phone : 1733-040773, 01973040773 ",Fax : ,"Email : malek@anikgroupbd.com, ani_malek98@yahoo.com ",Website :  ,"Products : Corrugated Carton, Back Board, Neck Board, Photocard, Paraphine, Colar Stand, Butterfly, Barcode Label, Hangtag, Interlining, Tissue Paper. "
57, Anis Accessories & Packaging Ltd. [ Membership: 732 ]   Member Status : Active ," Mr. Md. Anisur Rahman Bhuyan,  Managing Director","Company Address : Zirabo, Ashulia, Savar, Dhaka ","Factory Address : Zirabo, Ashulia, Savar, Dhaka ","Phone : 9345108, 9330043, 01711522933 ",Fax : 8355240 ,"Email : anisltd@yahoo.com, anisltd@gmail.com ",Website :  ,"Products : Corrugated Carton, Back Board, Neck Board, Tissue Paper, Hang Tag, Price Tag, Size Tag, Photo in lay, Printed Poly Bag, Elastic/Non Elastic Band, Sewing Thread. "
58, Ankur Packaging & Accessories Ltd. [ Membership: 439 ]   Member Status : Active ," Mr. Aminul Islam Babul,  Managing Director","Company Address : 576, Digirchala (Mouza-Itahata), P.O.-Chandona - Chowrasta, P.S.-Gazipur Sadar, Dist.-Gazipur. ","Factory Address : 576, Digirchala (Mouza-Itahata), P.O.-Chandona - Chowrasta, P.S.-Gazipur Sadar, Dist.-Gazipur. ","Phone : 9256289, 01711594066 ",Fax : 9263010 ,Email : kp.ankur75@yahoo.com ,Website :  ,"Products : Corrugated Carton, Back Board, Neck Board, Tissue Paper, Hang Tag, Photo Card, Paper Band, Price Tag. "
59, Anmon Garments Accessories Ind. Ltd. [ Membership: 690 ]   Member Status : Cancel ," Mr. Kazi Showkat Zaman,  Managing Director","Company Address : 41/Uma, Hatkhola Road (2nd Floor), Tikatuli, Dhaka ","Factory Address : 41/Uma, Hatkhola Road (2nd Floor), Tikatuli, Dhaka ",Phone : 9569517 ,Fax : 7175869 ,Email : anmongroup@yahoo.com ,Website :  ,"Products : Printed Poly Bag, Back Board, Neck Board, Tissue Paper, Hang Tag, Bar Code, Size Tag, Price Tag, Paper Band, Sticker, Hanger. "
60, Anmon Packages (Pvt.) Ltd. [ Membership: 71 ]   Member Status : Cancel ," Mr. Kazi Shawkat Zaman,  Managing Director.","Company Address : Shimrail, Siddirgonj, Narayanganj ","Factory Address : Shimrail, Siddirgonj, Narayanganj ",Phone : 880-2-9569517 ,Fax : 9666706 ,Email : anmongroup@yahoo.com ,Website :  ,"Products : Corrugated Carton, Back Board, Neck Board, Tissue Paper, Hang Tag, Price Tag, encodecode, etc. "
61, ANS Poly & Accessories [ Membership: 841 ]   Member Status : Cancel ," Mr. Mohammad Nasiruddin,  Proprietor","Company Address : Chunkutia, Paschimpara, Shubadda Keraniganj, Dhaka ","Factory Address : Chunkutia, Paschimpara, Shubadda Keraniganj, Dhaka ",Phone : 7392071 ,Fax : 7390367 ,Email : ,Website :  ,Products : Garments Accessories 
62, Anura Accessories [ Membership: 712 ]   Member Status : Active ," Mrs. Noor-E-Zannat,  Managing Partner","Company Address : Farm Cottage, 2103, Al-Amin Baria, Chandgaon, Chattogram ","Factory Address : Farm Cottage, 2103, Al-Amin Baria, Chandgaon, Chattogram ","Phone : 031-670405, 01758244690 ",Fax : 031-670405 ,Email : anuraaccessories@yahoo.com ,Website :  ,"Products : Elastic/Non-Elastic Band, Twill Tape, Sewing Thread, Drawstring/Draw Cord. "
63, Anz Packaging [ Membership: 156 ]   Member Status : Cancel ," Mr. B. M. Monir Hossain,  Proprietor",Company Address : ,Factory Address : ,Phone : 88-031-713928 ,Fax : ,Email : anzpack@bttb.net.bd ,Website :  ,"Products : Corrugated Carton, Back Board, Neck Board, Tissue Paper. "
64, Aparna Packaging & Accessories Ltd. [ Membership: 469 ]   Member Status : Active ," Mr.Shahidul Haque Mukul,  Managing Director","Company Address : 2291, Uttar Rayerbag, Titas Road, Lane – 2, Jatrabari, Dhaka. ","Factory Address : 2291, Uttar Rayerbag, Titas Road, Lane – 2, Jatrabari, Dhaka. ",Phone : 01552411571 ,Fax : ,Email : bahauddin72@yahoo.com.au ,Website :  ,"Products : Corrugated Carton, Back Board, Neck Board, Tissue Paper. "
65, Apex Accessories Ltd. [ Membership: 498 ]   Member Status : Cancel ," Mr. Md.  Iqbal Hassan Mahmood,  Managing Director","Company Address : East Chandora, P.O. Shafipur, Dist: Gazipur ","Factory Address : East Chandora, P.O. Shafipur, Dist: Gazipur ","Phone : 9555363, 9562004 ",Fax : 9556487 ,Email : apexmail@apex-tg.net ,Website :  ,Products : Corrugated Carton. 
66, Appollo Packaging (BD) Ltd. [ Membership: 1054 ]   Member Status : Active ," Mr. Abdul Momin Mondol,  Managing Director","Company Address : Plot # F/38, F/39, Block # F, Face-2, Pallabi, Mirpur, Dhaka ","Factory Address : Plot # F/38, F/39, Block # F, Face-2, Pallabi, Mirpur, Dhaka ",Phone : 41040176-84 ,Fax : ,"Email : commercial@mondol.net, info@mondol.net ",Website : www.mondol.net ,Products : Corrugated Carton 
67, APS Paper Works Ltd. [ Membership: 577 ]   Member Status : Active ," Mr. Muaz Bin Masud ,  Chairman","Company Address : Kamargaon, Pubail Gazipur Sadar, Gazipur ","Factory Address : Kamargaon, Pubail Gazipur Sadar, Gazipur ","Phone : Tel: 9815936,  Cell: 01711530772  ",Fax : Fax: 9815936 ,Email : carton@aps-group.org ,Website :  ,Products : Corrugated Carton. 
68, A. Q. N. Business Associates Ltd. [ Membership: 200 ]   Member Status : Active ," Sk. Abidur Rahman (Abid),  Managing Director","Company Address : 1242, East Monipur,  Begum Rokeya Sorani, Mirpur, Dhaka ","Factory Address : 1242, East Monipur,  Begum Rokeya Sorani, Mirpur, Dhaka ","Phone : 55073504, 01711530046 ",Fax : 8018982 ,"Email : aqn@thenetheads.com, s.a.rahman956@gmail.com, abid@arunima-group.net ",Website : www.aqnpoly.com ,Products : Multi color garments printed poly bag 
69, Array International Ltd. [ Membership: 652 ]   Member Status : Active ," Mr. Md. Shahidul Islam (Shahed),  Managing Director","Company Address : Dag # 524, Hal Dag # 39, Shaibrampur, Zirani Bazar, Gazipur. ","Factory Address : Dag # 524, Hal Dag # 39, Shaibrampur, Zirani Bazar, Gazipur. ","Phone : 84414696-7, 8416113, 8410483, 8412151 ",Fax : 88-02-8415546 ,Email : arryaccounts@radiancegroup-bd.com ,Website : www.radiancegroup-bd.com ,"Products : Hang Tag/Sticker Phot in lay, Printed Label, Woven Label, Poly Bag (PP/LDP, PVC), Back Board, Neck Board, Carton/Box Carton. "
70, Arrow Labels Ltd. [ Membership: 859 ]   Member Status : Cancel ," Mr. Joynta  Narayan Choudhury,  Director","Company Address : Hous# 259, (3rd Floor), Lane # 19  New DOHS Mohakhali, Dhaka ","Factory Address : Hous# 259, (3rd Floor), Lane # 19  New DOHS Mohakhali, Dhaka ",Phone : 044744450200 ,Fax : 9890684 ,Email : ,Website :  ,Products : Garments Accessories 
71, Arthy Trading Company  [ Membership: 914 ]   Member Status : Active ," Ms. Tania Parveen,  Proprietor","Company Address : Industrial Plot # 94/3, Paler Para, Ward # 16, Bashon, Gazipur Sadar, Gazipur ","Factory Address : Industrial Plot # 94/3, Paler Para, Ward # 16, Bashon, Gazipur Sadar, Gazipur ","Phone : 01713004218, 01819 212358 ",Fax : 7218338 ,"Email : mithu@gtlbd.com, arthy.tradingcompany@gmail.com ",Website :  ,"Products : Carton, Poly Bag, Gum Tape, Label "
72, Artistic Associates Ltd. [ Membership: 607 ]   Member Status : Active ," Mr. Arif Mahmud,  Managing Director","Company Address : House # 2/1, Road # 5, Block # A, Nayanagar, Nishatnagar, Turag, Dhaka ","Factory Address : House # 2/1, Road # 5, Block # A, Nayanagar, Nishatnagar, Turag, Dhaka ","Phone : 8982156-57, 01713030757 ",Fax : ,Email : artisticpackaging@gmail.com ,Website :  ,"Products : Corrugated Carton, Back Board, Neck Board, Tissue Paper, Hang Tag, Paper Band, Photocard, Barcode, Sticker. "
73, Asef Packaging & Printing Industry [ Membership: 734 ]   Member Status : Active ," Mr. Kazi Mizanur Rahman,  Proprietor","Company Address : Hindu Vakurta, Vakurta, Savar, Dhaka ","Factory Address : Hindu Vakurta, Vakurta, Savar, Dhaka ",Phone : 9567934 ,Fax : 9565046 ,Email : asefpackaging@gmail.com ,Website :  ,Products : Corrugated Carton 
74, Asha Packaging & Printing Inds. Ltd. [ Membership: 238 ]   Member Status : Cancel ," Mr. Fahmuddin Ahmed,  Managing Director","Company Address : Kazirgaon, Matuail, Demra, Dhaka ","Factory Address : Kazirgaon, Matuail, Demra, Dhaka ",Phone : 9569533 ,Fax : 9569533 ,Email : ,Website :  ,Products : Garments Accessories 
75, Asha Poly Manufacturing Inds. Ltd. [ Membership: 509 ]   Member Status : Cancel ," Mr. Md. Sawkat Ali Khan Liton,  Managing Director",Company Address : ,Factory Address : ,Phone : 7216083 ,Fax : 7210025 ,Email : ,Website :  ,Products : Printed Poly Bag. 
76, ASM Packaging Industries Limited [ Membership: 220 ]   Member Status : Cancel ," Mr. Mohammad Saiful Islan,  Managing Director",Company Address : ,Factory Address : ,Phone : 031-741306 ,Fax : 031-710746 ,Email : ,Website :  ,"Products : Corrugated Carton, Back Board, Neck Board, Tissue Paper. "
77, Asma Printing & Packaging Industries [ Membership: 751 ]   Member Status : Active ," Mr. Obidur Rahman,  Proprietor","Company Address : 341/A, Kunia Pachar (Taragach) Chandura Road, Board Bazar, Gazipur ","Factory Address : 341/A, Kunia Pachar (Taragach) Chandura Road, Board Bazar, Gazipur ","Phone : 9293569-70, 01711542186 ",Fax : 9293571 ,"Email : info@adsumbd.com, info@adsum-asma.com ",Website :  ,"Products : Corrugated Carton, Back Board, Neck Board, Collar Bone, Bar Code, Hang Tag, Size Tag, Tissue Paper. "
78, Atandra Graphic Private Ltd. [ Membership: 760 ]   Member Status : Active ," Mr. M. Enamul Haq,  Managing Director","Company Address : Baniarchala (Member Bari) Vabanipur, Gazipur Sadar, Gazipur ","Factory Address : Baniarchala (Member Bari) Vabanipur, Gazipur Sadar, Gazipur ","Phone : 7914143, 9341818 ",Fax : 8918865 ,Email : atandra.enam@gmail.com ,Website :  ,"Products : Poly Bag, Sewing Thread, Back Board, Neck Board, Label "
79, A-Tex International Ltd. [ Membership: 1098 ]   Member Status : Active ," Mr. Claus Tjaerby,  Managing Director","Company Address : Shirir Chala, Vabanipur, Gazipur Sadar, Gazipur ","Factory Address : Shirir Chala, Vabanipur, Gazipur Sadar, Gazipur ",Phone : 8833213 ,Fax : 8833215 ,"Email : skm@a-tex.com, info@a-tex.com, ponkoj.roy@a-tex.com ",Website : www.a-tex.com ,"Products : Zipper Slider, Thread Coning, Hook & Loop, Sticker, Labels, Hang Tag "
80, Atlantic Industries Ltd. [ Membership: 506 ]   Member Status : Active ," Mr. Md. Mostafa Kamal,  Managing Director","Company Address : B-49, BSCIC Industrial Estate, Tongi, Gazipur ","Factory Address : B-49, BSCIC Industrial Estate, Tongi, Gazipur ","Phone : 9852738, 9852736 ",Fax : ,"Email : info@atlanticzipper.com, imports@atlanticzipper.com ",Website : www.atlanticzipper.com ,Products : Zipper. 
81, Atlantic Packaging Ltd. [ Membership: 755 ]   Member Status : Active ," Mr. Pradip Kumar Biswas,  Managing Director","Company Address : Ward # 7, Esanagar, Charpatharghata, Karnafully, Chattogram ","Factory Address : Ward # 7, Esanagar, Charpatharghata, Karnafully, Chattogram ","Phone : 01673731040, 01730035789, 01711696222 ",Fax : 031-2853013 ,Email : atlanticpackaltd@gmail.com ,Website :  ,"Products : Printed Poly Bag, Back Board, Neck Board, Hang Tag, Price Tag, Size Tag, Phot in lay, Tissue Paper. "
82, Attrium Trims Manufacturing Industries [ Membership: 1218 ]   Member Status : Cancel ," Mr. Kamruzzaman Khan,  Managing Partner",Company Address : ,Factory Address : ,Phone : ,Fax : ,Email : ,Website :  ,"Products : Poly Bag, Hanger, Sticker "
83, Aust Bangla Accessories Ind. Ltd. [ Membership: 1112 ]   Member Status : Active ," Mr. F. M. Touhidur Rahman,  Managing Director","Company Address : 300, Nasirabad, I/A, Textile Gate, Nasirabad, Thana Road, Chattogram. ","Factory Address : 300, Nasirabad, I/A, Textile Gate, Nasirabad, Thana Road, Chattogram. ","Phone : 031-2584495, 2584496, 01719-294980 ",Fax : ,"Email : fmtr2002@yahoo.com, austbanglagroup@yahoo.com ",Website :  ,"Products : Printed Poly Bag, BOPP Bag, Back Board, Neck Board, Collar Bone, Bar Code, Hang Tag, Size Tag, Price Tag, Tissue Paper etc. "
84, AZ Packaging & Accessories Ltd. [ Membership: 959 ]   Member Status : Active ," Mr. Md.Habibur Rahman,  Managing Director","Company Address : 4, Paity Main Road, Demra, Dhaka. ","Factory Address : 4, Paity Main Road, Demra, Dhaka. ","Phone : 7500229, 01731415437 ",Fax : 7501943 ,Email : azpseltd@yahoo.com ,Website :  ,"Products : Master Carton, Inner Carton, Back Board. "
85, A. Z. Packaging Ltd. [ Membership: 183 ]   Member Status : Active ," Mr. Md. Omar Faruque,  Managing Director","Company Address : Plot # 09, Road # 14, Shampur, Kadamtoli I/A, Dhaka ","Factory Address : Plot # 09, Road # 14, Shampur, Kadamtoli I/A, Dhaka ",Phone : 7176903 ,Fax : ,Email : azpbd@yahoo.com ,Website :  ,"Products : Corrugated Carton, Back Board, Neck Board, Tissue Paper, Collar Bone, Bar Code, Photocard, Paper Band etc. "
86, Azraqi Ind. Pvt. Ltd. [ Membership: 1219 ]   Member Status : Cancel ," Mr. Faruk Ahmed,  Managing Director",Company Address : ,Factory Address : ,Phone : ,Fax : ,Email : azraqi.ind@gmail.com ,Website :  ,"Products : Carton, Master Inner, White, Back Board, Neck Board, Photo Card, Photo Inle, Tissue Paper, Bar Code, Price Tag, Size Tag, Tang Tag. "
87, B. L. Poly Bag (Pvt.) Ltd. [ Membership: 345 ]   Member Status : Cancel ," Mr. Minto Kumar Saha,  Managing Director","Company Address : North Masdair, Fatullah, Narayanganj ","Factory Address : North Masdair, Fatullah, Narayanganj ","Phone : 9714865, 01819-238414 ",Fax : 7634261 ,Email : blpolybag@gmail.com ,Website :  ,"Products : Printed Poly bag, Corrugated Carton, Back Board, Neck Board, Tissue Paper, Hanger. "
88, Rupchand Packaging & Accessories Ind. Ltd.  [ Membership: 95 ]   Member Status : Cancel ," Mr. Md. Mazharul Islam,  Managing Director ",Company Address : ,Factory Address : ,Phone : 9567381  ,Fax : 9564149 ,Email : ,Website :  ,"Products : Corrugated Carton, Back Board, Neck Board. "
89, Babylon Trims Ltd. [ Membership: 597 ]   Member Status : Active ," Mr. Abdus Salam Sikder,  Managing Director","Company Address : Kandi Boilapur, Horindhara, Tetulzhora,  Hemayetpur, Savar, Dhaka ","Factory Address : Kandi Boilapur, Horindhara, Tetulzhora,  Hemayetpur, Savar, Dhaka ",Phone : 8023495-6 ,Fax : 8015128 ,"Email : babylon@babylon-bd.com, salam@babylon-bd.com ",Website : www.babylon-bd.com ,"Products : Corrugated Carton, Back Board, Neck Board, Tissue Paper, Hang Tag, Price Tag, photo in lay, Collar Insert., Photocard etc. "
90, Badar Box Industries Ltd. [ Membership: 13 ]   Member Status : Cancel ," Mr. Golam Mostafa,  Managing Director.",Company Address : ,Factory Address : ,Phone : 031-681665 ,Fax : 031-682532 ,Email : bnpml@bdonline_ctg.com ,Website :  ,"Products : Corrugated Carton, Back Board, Neck Board, Tissue Paper. "
91, Baly Integrated Solutions Ltd. [ Membership: 1214 ]   Member Status : Active ," Mr. Md. Moniruzzaman,  Chairman","Company Address : Raj Fulbaria, Savar, Dhaka ","Factory Address : Raj Fulbaria, Savar, Dhaka ","Phone : 8931846-7, 8932697-8, 01711529064, 01936005623 ","Fax : 8932964, 8922832 ","Email : balybd@bangla.net, balybd1@balybd.com ",Website :  ,"Products : Plastic  Hanger, Printed size ring, Thread Cones, Printed poly bags, Zip lock bags, Corrugated Cartons, Gum Tapes, Pet Preforms, Pet Bottles, PP Caps, Automative Battery Casing. "
92, Bangla Poly & Pacakging Ind. Ltd. [ Membership: 982 ]   Member Status : Active ," Mr. Hasan Mahmud ,  Managing Director","Company Address : Hatiabo, Porabari, PO: B.O.F, Gazipur City Corporation, Gazipur ","Factory Address : Hatiabo, Porabari, PO: B.O.F, Gazipur City Corporation, Gazipur ",Phone : 01711528470 ,Fax : ,Email : dsignace@gmail.com ,Website :  ,"Products : PP Bag (except shoping bag), ADP Bag, Various types of Carton. "
93, Bangladesh Kawa Ind. Co. Ltd. [ Membership: 206 ]   Member Status : Cancel ," Mr. Syedur Rahman (Mintoo),  Managing Director",Company Address : ,Factory Address : ,Phone : 8013364 ,Fax : 8013511 ,Email : info@prostargroup.biz ,Website :  ,Products : Corrugated Carton 
94, Banladesh Poly Printing International Ltd. [ Membership: 1100 ]   Member Status : Active ," Mr. Mohd. Amzad Hossain,  Deputy Managing Director","Company Address : Khulna-Mongla Road, Katakhali Shambagath, Lockpur, Fakirhat, Bagerhat ","Factory Address : Khulna-Mongla Road, Katakhali Shambagath, Lockpur, Fakirhat, Bagerhat ",Phone : 04663-56016-19 Mob: 01711337671 (CFO & ED) ,Fax : 04663-56012  ,"Email : kppl_07@yahoo.com, bppil.khulna@gmail.com ",Website :  ,"Products : Master Carton, Inner Carton, NC & IC, Poly Bag, Color Poly. "
95, Baridhara Packaging Ltd. [ Membership: 118 ]   Member Status : Active ," Mr. Enamul Haq,  Managing Director","Company Address : Baniar Chala (Member Bari), Vobanipur, Gazipur ","Factory Address : Baniar Chala (Member Bari), Vobanipur, Gazipur ","Phone : 9341818, 01819223993 ",Fax : 8313666 ,Email : atandra.enam@gmail.com ,Website :  ,"Products : Corrugated Carton, Back Board, Neck Board, Tissue Paper. "
96, Barkat Accessories Ltd. [ Membership: 1055 ]   Member Status : Cancel ," Engr. M. Wahid Ullah Pradhan,  Managing Director",Company Address : ,Factory Address : ,Phone : 8712080 ,Fax : 8712120 ,Email : info@barkatbd.com ,Website :  ,"Products : Woven Label, Jacquard Elastic/Non Elastic, Twill Tape,/Cotton Tape, Narrow Fabric, Tape, Weaving Belt. "
97, Beco Packaging [ Membership: 204 ]   Member Status : Active ," Mr. Kaiser Alam (Selim),  Proprietor","Company Address : 232-234, Tejgaon I/A, Dhaka-1208. ","Factory Address : 232-234, Tejgaon I/A, Dhaka-1208. ","Phone : Tel: 8829316, 01819228454 ",Fax : 8823283 ,Email : tapashbeco@gmail.com ,Website :  ,"Products : Corrugated Carton, Back Board, Neck Board, Tissue Paper, hang tag, Price Tag etc. "
98, Begh Plastic & Polymer Industries [ Membership: 837 ]   Member Status : Active ," Mr. Delwar Hossain,  Begh Proprietor","Company Address : Plot #09, Shampur-Kadamtali Industrial Area, Dhaka. ","Factory Address : Plot #09, Shampur-Kadamtali Industrial Area, Dhaka. ",Phone : 9559010 ,Fax : 9558831 ,"Email : beghgroup@yahoo.com, info@begh.net ",Website :  ,"Products : Printed Poly Bag, Corrugated Carton, Back Board, Neck Board, Tissue Paper. "
